[{"OBJECT_NAME":"W-SERIES 4","OBJECT_ID":"2025-135R","EPOCH":"2026-03-09T19:54:39.716640","MEAN_MOTION":15.01503849,"ECCENTRICITY":0.04025811,"INCLINATION":97.4458,"RA_OF_ASC_NODE":182.1022,"ARG_OF_PERICENTER":65.9998,"MEAN_ANOMALY":298.2822,"EPHEMERIS_TYPE":0,"CLASSIFICATION_TYPE":"U","NORAD_CAT_ID":64543,"ELEMENT_SET_NO":999,"REV_AT_EPOCH":3954,"BSTAR":0.00063083397,"MEAN_MOTION_DOT":0.00052628,"MEAN_MOTION_DDOT":2.148409e-6},{"OBJECT_NAME":"STARLINK-35859","OBJECT_ID":"2025-303Y","EPOCH":"2026-03-09T01:34:32.725920","MEAN_MOTION":15.27586117,"ECCENTRICITY":0.00016597,"INCLINATION":43.0016,"RA_OF_ASC_NODE":313.8994,"ARG_OF_PERICENTER":262.5678,"MEAN_ANOMALY":97.4985,"EPHEMERIS_TYPE":0,"CLASSIFICATION_TYPE":"U","NORAD_CAT_ID":67185,"ELEMENT_SET_NO":999,"REV_AT_EPOCH":1264,"BSTAR":0.0013759151,"MEAN_MOTION_DOT":0.00037802,"MEAN_MOTION_DDOT":0}]
